[{"OBJECT_NAME":"STARLINK-4341","OBJECT_ID":"2022-077K","EPOCH":"2026-03-09T11:57:41.825664","MEAN_MOTION":15.01261289,"ECCENTRICITY":0.00024141,"INCLINATION":97.6022,"RA_OF_ASC_NODE":250.0365,"ARG_OF_PERICENTER":35.8169,"MEAN_ANOMALY":324.3216,"EPHEMERIS_TYPE":0,"CLASSIFICATION_TYPE":"U","NORAD_CAT_ID":53052,"ELEMENT_SET_NO":999,"REV_AT_EPOCH":20088,"BSTAR":2.727652e-6,"MEAN_MOTION_DOT":-2.3e-7,"MEAN_MOTION_DDOT":0},{"OBJECT_NAME":"COSMOS 2251 DEB","OBJECT_ID":"1993-036BTL","EPOCH":"2026-03-05T23:04:31.790784","MEAN_MOTION":14.99909335,"ECCENTRICITY":0.00032115,"INCLINATION":74.0103,"RA_OF_ASC_NODE":259.8781,"ARG_OF_PERICENTER":226.5417,"MEAN_ANOMALY":133.5503,"EPHEMERIS_TYPE":0,"CLASSIFICATION_TYPE":"U","NORAD_CAT_ID":38220,"ELEMENT_SET_NO":999,"REV_AT_EPOCH":72615,"BSTAR":0.0034301399,"MEAN_MOTION_DOT":0.00042797,"MEAN_MOTION_DDOT":0}]
